<?xml version="1.0" encoding="UTF-8"?>
<ndm xmlns:xsi="http://www.w3.org/2001/XMLSchema-instance" xsi:noNamespaceSchemaLocation="https://sanaregistry.org/r/ndmxml_unqualified/ndmxml-2.0.0-master-2.0.xsd">
<omm id="CCSDS_OMM_VERS" version="2.0">
<header><CREATION_DATE/><ORIGINATOR/></header><body><segment><metadata><OBJECT_NAME>GLOBALSTAR M024</OBJECT_NAME><OBJECT_ID>1999-043A</OBJECT_ID><CENTER_NAME>EARTH</CENTER_NAME><REF_FRAME>TEME</REF_FRAME><TIME_SYSTEM>UTC</TIME_SYSTEM><MEAN_ELEMENT_THEORY>SGP4</MEAN_ELEMENT_THEORY></metadata><data><meanElements><EPOCH>2025-11-24T09:10:24.174336</EPOCH><MEAN_MOTION>11.10168720</MEAN_MOTION><ECCENTRICITY>.0001165</ECCENTRICITY><INCLINATION>52.0055</INCLINATION><RA_OF_ASC_NODE>19.1641</RA_OF_ASC_NODE><ARG_OF_PERICENTER>6.7459</ARG_OF_PERICENTER><MEAN_ANOMALY>76.2526</MEAN_ANOMALY></meanElements><tleParameters><EPHEMERIS_TYPE>0</EPHEMERIS_TYPE><CLASSIFICATION_TYPE>U</CLASSIFICATION_TYPE><NORAD_CAT_ID>25883</NORAD_CAT_ID><ELEMENT_SET_NO>999</ELEMENT_SET_NO><REV_AT_EPOCH>13265</REV_AT_EPOCH><BSTAR>-.2404E-2</BSTAR><MEAN_MOTION_DOT>-.133E-5</MEAN_MOTION_DOT><MEAN_MOTION_DDOT>0</MEAN_MOTION_DDOT></tleParameters></data></segment></body></omm>
<omm id="CCSDS_OMM_VERS" version="2.0">
<header><CREATION_DATE/><ORIGINATOR/></header><body><segment><metadata><OBJECT_NAME>GLOBALSTAR M027</OBJECT_NAME><OBJECT_ID>1999-043B</OBJECT_ID><CENTER_NAME>EARTH</CENTER_NAME><REF_FRAME>TEME</REF_FRAME><TIME_SYSTEM>UTC</TIME_SYSTEM><MEAN_ELEMENT_THEORY>SGP4</MEAN_ELEMENT_THEORY></metadata><data><meanElements><EPOCH>2025-11-24T08:10:52.705056</EPOCH><MEAN_MOTION>11.04372872</MEAN_MOTION><ECCENTRICITY>.002072</ECCENTRICITY><INCLINATION>52.0197</INCLINATION><RA_OF_ASC_NODE>101.7754</RA_OF_ASC_NODE><ARG_OF_PERICENTER>248.1121</ARG_OF_PERICENTER><MEAN_ANOMALY>111.7469</MEAN_ANOMALY></meanElements><tleParameters><EPHEMERIS_TYPE>0</EPHEMERIS_TYPE><CLASSIFICATION_TYPE>U</CLASSIFICATION_TYPE><NORAD_CAT_ID>25884</NORAD_CAT_ID><ELEMENT_SET_NO>999</ELEMENT_SET_NO><REV_AT_EPOCH>15893</REV_AT_EPOCH><BSTAR>-.16892E-3</BSTAR><MEAN_MOTION_DOT>-.68E-6</MEAN_MOTION_DOT><MEAN_MOTION_DDOT>0</MEAN_MOTION_DDOT></tleParameters></data></segment></body></omm>
<omm id="CCSDS_OMM_VERS" version="2.0">
<header><CREATION_DATE/><ORIGINATOR/></header><body><segment><metadata><OBJECT_NAME>GLOBALSTAR M054</OBJECT_NAME><OBJECT_ID>1999-043C</OBJECT_ID><CENTER_NAME>EARTH</CENTER_NAME><REF_FRAME>TEME</REF_FRAME><TIME_SYSTEM>UTC</TIME_SYSTEM><MEAN_ELEMENT_THEORY>SGP4</MEAN_ELEMENT_THEORY></metadata><data><meanElements><EPOCH>2025-11-24T00:16:11.607744</EPOCH><MEAN_MOTION>11.39223988</MEAN_MOTION><ECCENTRICITY>.000606</ECCENTRICITY><INCLINATION>52.0115</INCLINATION><RA_OF_ASC_NODE>202.9913</RA_OF_ASC_NODE><ARG_OF_PERICENTER>87.7304</ARG_OF_PERICENTER><MEAN_ANOMALY>50.0810</MEAN_ANOMALY></meanElements><tleParameters><EPHEMERIS_TYPE>0</EPHEMERIS_TYPE><CLASSIFICATION_TYPE>U</CLASSIFICATION_TYPE><NORAD_CAT_ID>25885</NORAD_CAT_ID><ELEMENT_SET_NO>999</ELEMENT_SET_NO><REV_AT_EPOCH>13726</REV_AT_EPOCH><BSTAR>.7563E-3</BSTAR><MEAN_MOTION_DOT>-.42E-6</MEAN_MOTION_DOT><MEAN_MOTION_DDOT>0</MEAN_MOTION_DDOT></tleParameters></data></segment></body></omm>
<omm id="CCSDS_OMM_VERS" version="2.0">
<header><CREATION_DATE/><ORIGINATOR/></header><body><segment><metadata><OBJECT_NAME>GLOBALSTAR M053</OBJECT_NAME><OBJECT_ID>1999-043D</OBJECT_ID><CENTER_NAME>EARTH</CENTER_NAME><REF_FRAME>TEME</REF_FRAME><TIME_SYSTEM>UTC</TIME_SYSTEM><MEAN_ELEMENT_THEORY>SGP4</MEAN_ELEMENT_THEORY></metadata><data><meanElements><EPOCH>2025-11-24T00:09:32.430240</EPOCH><MEAN_MOTION>11.27668769</MEAN_MOTION><ECCENTRICITY>.0003548</ECCENTRICITY><INCLINATION>51.9937</INCLINATION><RA_OF_ASC_NODE>158.9634</RA_OF_ASC_NODE><ARG_OF_PERICENTER>17.2536</ARG_OF_PERICENTER><MEAN_ANOMALY>143.7402</MEAN_ANOMALY></meanElements><tleParameters><EPHEMERIS_TYPE>0</EPHEMERIS_TYPE><CLASSIFICATION_TYPE>U</CLASSIFICATION_TYPE><NORAD_CAT_ID>25886</NORAD_CAT_ID><ELEMENT_SET_NO>999</ELEMENT_SET_NO><REV_AT_EPOCH>13747</REV_AT_EPOCH><BSTAR>-.39335E-3</BSTAR><MEAN_MOTION_DOT>-.82E-6</MEAN_MOTION_DOT><MEAN_MOTION_DDOT>0</MEAN_MOTION_DDOT></tleParameters></data></segment></body></omm>
<omm id="CCSDS_OMM_VERS" version="2.0">
<header><CREATION_DATE/><ORIGINATOR/></header><body><segment><metadata><OBJECT_NAME>GLOBALSTAR M058</OBJECT_NAME><OBJECT_ID>1999-049A</OBJECT_ID><CENTER_NAME>EARTH</CENTER_NAME><REF_FRAME>TEME</REF_FRAME><TIME_SYSTEM>UTC</TIME_SYSTEM><MEAN_ELEMENT_THEORY>SGP4</MEAN_ELEMENT_THEORY></metadata><data><meanElements><EPOCH>2025-11-24T09:27:16.017696</EPOCH><MEAN_MOTION>11.93205418</MEAN_MOTION><ECCENTRICITY>.0001976</ECCENTRICITY><INCLINATION>51.9968</INCLINATION><RA_OF_ASC_NODE>41.3767</RA_OF_ASC_NODE><ARG_OF_PERICENTER>204.0310</ARG_OF_PERICENTER><MEAN_ANOMALY>156.0432</MEAN_ANOMALY></meanElements><tleParameters><EPHEMERIS_TYPE>0</EPHEMERIS_TYPE><CLASSIFICATION_TYPE>U</CLASSIFICATION_TYPE><NORAD_CAT_ID>25907</NORAD_CAT_ID><ELEMENT_SET_NO>999</ELEMENT_SET_NO><REV_AT_EPOCH>56066</REV_AT_EPOCH><BSTAR>.73037E-3</BSTAR><MEAN_MOTION_DOT>-.3E-6</MEAN_MOTION_DOT><MEAN_MOTION_DDOT>0</MEAN_MOTION_DDOT></tleParameters></data></segment></body></omm>
<omm id="CCSDS_OMM_VERS" version="2.0">
<header><CREATION_DATE/><ORIGINATOR/></header><body><segment><metadata><OBJECT_NAME>GLOBALSTAR M050</OBJECT_NAME><OBJECT_ID>1999-049B</OBJECT_ID><CENTER_NAME>EARTH</CENTER_NAME><REF_FRAME>TEME</REF_FRAME><TIME_SYSTEM>UTC</TIME_SYSTEM><MEAN_ELEMENT_THEORY>SGP4</MEAN_ELEMENT_THEORY></metadata><data><meanElements><EPOCH>2025-11-24T09:35:58.348032</EPOCH><MEAN_MOTION>12.07460334</MEAN_MOTION><ECCENTRICITY>.0008702</ECCENTRICITY><INCLINATION>52.0013</INCLINATION><RA_OF_ASC_NODE>37.0669</RA_OF_ASC_NODE><ARG_OF_PERICENTER>353.1153</ARG_OF_PERICENTER><MEAN_ANOMALY>89.0528</MEAN_ANOMALY></meanElements><tleParameters><EPHEMERIS_TYPE>0</EPHEMERIS_TYPE><CLASSIFICATION_TYPE>U</CLASSIFICATION_TYPE><NORAD_CAT_ID>25908</NORAD_CAT_ID><ELEMENT_SET_NO>999</ELEMENT_SET_NO><REV_AT_EPOCH>16754</REV_AT_EPOCH><BSTAR>-.50945E-3</BSTAR><MEAN_MOTION_DOT>-.133E-5</MEAN_MOTION_DOT><MEAN_MOTION_DDOT>0</MEAN_MOTION_DDOT></tleParameters></data></segment></body></omm>
<omm id="CCSDS_OMM_VERS" version="2.0">
<header><CREATION_DATE/><ORIGINATOR/></header><body><segment><metadata><OBJECT_NAME>GLOBALSTAR M033</OBJECT_NAME><OBJECT_ID>1999-049C</OBJECT_ID><CENTER_NAME>EARTH</CENTER_NAME><REF_FRAME>TEME</REF_FRAME><TIME_SYSTEM>UTC</TIME_SYSTEM><MEAN_ELEMENT_THEORY>SGP4</MEAN_ELEMENT_THEORY></metadata><data><meanElements><EPOCH>2025-11-24T07:39:08.735904</EPOCH><MEAN_MOTION>12.20293472</MEAN_MOTION><ECCENTRICITY>.0013332</ECCENTRICITY><INCLINATION>51.9914</INCLINATION><RA_OF_ASC_NODE>258.0623</RA_OF_ASC_NODE><ARG_OF_PERICENTER>234.4634</ARG_OF_PERICENTER><MEAN_ANOMALY>125.4971</MEAN_ANOMALY></meanElements><tleParameters><EPHEMERIS_TYPE>0</EPHEMERIS_TYPE><CLASSIFICATION_TYPE>U</CLASSIFICATION_TYPE><NORAD_CAT_ID>25909</NORAD_CAT_ID><ELEMENT_SET_NO>999</ELEMENT_SET_NO><REV_AT_EPOCH>55529</REV_AT_EPOCH><BSTAR>-.12202E-3</BSTAR><MEAN_MOTION_DOT>-.104E-5</MEAN_MOTION_DOT><MEAN_MOTION_DDOT>0</MEAN_MOTION_DDOT></tleParameters></data></segment></body></omm>
<omm id="CCSDS_OMM_VERS" version="2.0">
<header><CREATION_DATE/><ORIGINATOR/></header><body><segment><metadata><OBJECT_NAME>GLOBALSTAR M055</OBJECT_NAME><OBJECT_ID>1999-049D</OBJECT_ID><CENTER_NAME>EARTH</CENTER_NAME><REF_FRAME>TEME</REF_FRAME><TIME_SYSTEM>UTC</TIME_SYSTEM><MEAN_ELEMENT_THEORY>SGP4</MEAN_ELEMENT_THEORY></metadata><data><meanElements><EPOCH>2025-11-24T04:11:09.007584</EPOCH><MEAN_MOTION>12.29436446</MEAN_MOTION><ECCENTRICITY>.0007484</ECCENTRICITY><INCLINATION>52.0020</INCLINATION><RA_OF_ASC_NODE>261.4260</RA_OF_ASC_NODE><ARG_OF_PERICENTER>99.2501</ARG_OF_PERICENTER><MEAN_ANOMALY>260.9197</MEAN_ANOMALY></meanElements><tleParameters><EPHEMERIS_TYPE>0</EPHEMERIS_TYPE><CLASSIFICATION_TYPE>U</CLASSIFICATION_TYPE><NORAD_CAT_ID>25910</NORAD_CAT_ID><ELEMENT_SET_NO>999</ELEMENT_SET_NO><REV_AT_EPOCH>18796</REV_AT_EPOCH><BSTAR>.43509E-3</BSTAR><MEAN_MOTION_DOT>-.43E-6</MEAN_MOTION_DOT><MEAN_MOTION_DDOT>0</MEAN_MOTION_DDOT></tleParameters></data></segment></body></omm>

</ndm>
