GLOBALSTAR M024         
1 25883U 99043A   25328.38222424 -.00000133  00000+0 -24040-2 0  9998
2 25883  52.0055  19.1641 0001165   6.7459  76.2526 11.10168720132653
GLOBALSTAR M027         
1 25884U 99043B   25328.34088779 -.00000068  00000+0 -16892-3 0  9992
2 25884  52.0197 101.7754 0020720 248.1121 111.7469 11.04372872158938
GLOBALSTAR M054         
1 25885U 99043C   25328.01124546 -.00000042  00000+0  75630-3 0  9996
2 25885  52.0115 202.9913 0006060  87.7304  50.0810 11.39223988137260
GLOBALSTAR M053         
1 25886U 99043D   25328.00662535 -.00000082  00000+0 -39335-3 0  9998
2 25886  51.9937 158.9634 0003548  17.2536 143.7402 11.27668769137471
GLOBALSTAR M058         
1 25907U 99049A   25328.39393539 -.00000030  00000+0  73037-3 0  9994
2 25907  51.9968  41.3767 0001976 204.0310 156.0432 11.93205418560662
GLOBALSTAR M050         
1 25908U 99049B   25328.39998088 -.00000133  00000+0 -50945-3 0  9993
2 25908  52.0013  37.0669 0008702 353.1153  89.0528 12.07460334167541
GLOBALSTAR M033         
1 25909U 99049C   25328.31885111 -.00000104  00000+0 -12202-3 0  9990
2 25909  51.9914 258.0623 0013332 234.4634 125.4971 12.20293472555297
GLOBALSTAR M055         
1 25910U 99049D   25328.17440981 -.00000043  00000+0  43509-3 0  9993
2 25910  52.0020 261.4260 0007484  99.2501 260.9197 12.29436446187964
